IRIDIUM 159             
1 43578U 18061K   25016.70990448  .00000583  00000+0  20102-3 0  9991
2 43578  86.3954 272.5147 0002144  78.3494 281.7942 14.34219914339352
IRIDIUM 180             
1 43922U 19002A   25016.91870531  .00000148  00000+0  45895-4 0  9997
2 43922  86.3971 209.3131 0001892  91.3511 268.7901 14.34217452315033
IRIDIUM 176             
1 43923U 19002B   25016.46852110  .00000560  00000+0  85012-4 0  9994
2 43923  86.6099 209.5059 0001874  56.4181 303.7215 14.72239183323229
IRIDIUM 168             
1 43924U 19002C   25016.91234861  .00000143  00000+0  43948-4 0  9991
2 43924  86.3973 209.3784 0001997  86.0969 274.0455 14.34219152314970
IRIDIUM 173             
1 43925U 19002D   25016.48105321  .00000137  00000+0  41681-4 0  9997
2 43925  86.3969 209.4688 0001918  91.7237 268.4179 14.34219016314894
IRIDIUM 169             
1 43926U 19002E   25016.59200430  .00000518  00000+0  16285-3 0  9991
2 43926  86.4205 241.0285 0001118 143.9470 216.1804 14.38611257315955
IRIDIUM 172             
1 43927U 19002F   25016.47470729  .00000066  00000+0  16479-4 0  9993
2 43927  86.3971 209.4778 0001984  86.8302 273.3120 14.34218063314904
IRIDIUM 175             
1 43928U 19002G   25016.46316926  .00001751  00000+0  27385-3 0  9990
2 43928  86.1537 170.6625 0002498 119.7865 240.3600 14.72238630323217
